{"fetched_at":"2026-03-29T02:12:04Z","count":15717,"tles":[{"name":"STARLINK-32304","line1":"1 60738U 24152U   26087.47300913  .00000928  00000+0  43472-4 0  9990","line2":"2 60738  53.1608 181.3960 0001125  50.4202 309.6898 15.30181906 89722","category":"Starlink"}]}